{
  "type": "FeatureCollection",
  "features": [
    {
      "type": "Feature",
      "properties": {
        "norad_id": 32230,
        "name": "FENGYUN 1C DEB",
        "group": "fengyun-1c-debris",
        "lat": 50.936415071767186,
        "lon": -17.46654502258607,
        "alt_km": 695.8994385778688,
        "timestamp": "2025-12-26T22:28:06.070751+00:00",
        "meta_object_name": "FENGYUN 1C DEB",
        "meta_object_id": "1999-025CWC",
        "meta_epoch": "2025-12-20T09:22:08.439744",
        "meta_mean_motion": 14.56275202,
        "meta_eccentricity": 0.00497589,
        "meta_inclination": 98.8696,
        "meta_ra_of_asc_node": 144.4839,
        "meta_arg_of_pericenter": 64.7578,
        "meta_mean_anomaly": 324.6156,
        "meta_ephemeris_type": 0,
        "meta_classification_type": "U",
        "meta_norad_cat_id": 32230,
        "meta_element_set_no": 999,
        "meta_rev_at_epoch": 60781,
        "meta_bstar": 0.001606742,
        "meta_mean_motion_dot": 7.185e-05,
        "meta_mean_motion_ddot": 0,
        "tle_line1": "1 32230U 99025CWC 25354.39037546  .00007185  00000+0  16067-2 0  9993",
        "tle_line2": "2 32230  98.8696 144.4839 0049758  64.7578 324.6156 14.56275202607814"
      },
      "geometry": {
        "type": "Point",
        "coordinates": [
          -17.46654502258607,
          50.936415071767186
        ]
      }
    },
    {
      "type": "Feature",
      "properties": {
        "norad_id": 32234,
        "name": "FENGYUN 1C DEB",
        "group": "fengyun-1c-debris",
        "lat": -32.25032051572383,
        "lon": -144.8610337705702,
        "alt_km": 833.4641892697846,
        "timestamp": "2025-12-26T22:28:06.070761+00:00",
        "meta_object_name": "FENGYUN 1C DEB",
        "meta_object_id": "1999-025CWG",
        "meta_epoch": "2025-12-14T12:38:46.497984",
        "meta_mean_motion": 13.9413283,
        "meta_eccentricity": 0.01374559,
        "meta_inclination": 98.529,
        "meta_ra_of_asc_node": 198.2432,
        "meta_arg_of_pericenter": 331.2039,
        "meta_mean_anomaly": 28.1585,
        "meta_ephemeris_type": 0,
        "meta_classification_type": "U",
        "meta_norad_cat_id": 32234,
        "meta_element_set_no": 999,
        "meta_rev_at_epoch": 93234,
        "meta_bstar": 0.0014985343,
        "meta_mean_motion_dot": 2.108e-05,
        "meta_mean_motion_ddot": 0,
        "tle_line1": "1 32234U 99025CWG 25348.52692706  .00002108  00000+0  14985-2 0  9997",
        "tle_line2": "2 32234  98.5290 198.2432 0137455 331.2039  28.1585 13.94132830932348"
      },
      "geometry": {
        "type": "Point",
        "coordinates": [
          -144.8610337705702,
          -32.25032051572383
        ]
      }
    },
    {
      "type": "Feature",
      "properties": {
        "norad_id": 32241,
        "name": "FENGYUN 1C DEB",
        "group": "fengyun-1c-debris",
        "lat": -28.74179504400565,
        "lon": 35.99522669451583,
        "alt_km": 890.4757313735599,
        "timestamp": "2025-12-26T22:28:06.070772+00:00",
        "meta_object_name": "FENGYUN 1C DEB",
        "meta_object_id": "1999-025CWP",
        "meta_epoch": "2025-12-22T19:26:55.545504",
        "meta_mean_motion": 14.28813741,
        "meta_eccentricity": 0.01466316,
        "meta_inclination": 99.0757,
        "meta_ra_of_asc_node": 26.6735,
        "meta_arg_of_pericenter": 194.5712,
        "meta_mean_anomaly": 165.1219,
        "meta_ephemeris_type": 0,
        "meta_classification_type": "U",
        "meta_norad_cat_id": 32241,
        "meta_element_set_no": 999,
        "meta_rev_at_epoch": 93967,
        "meta_bstar": 0.0013225361,
        "meta_mean_motion_dot": 3.694e-05,
        "meta_mean_motion_ddot": 0,
        "tle_line1": "1 32241U 99025CWP 25356.81036511  .00003694  00000+0  13225-2 0  9999",
        "tle_line2": "2 32241  99.0757  26.6735 0146631 194.5712 165.1219 14.28813741939678"
      },
      "geometry": {
        "type": "Point",
        "coordinates": [
          35.99522669451583,
          -28.74179504400565
        ]
      }
    },
    {
      "type": "Feature",
      "properties": {
        "norad_id": 32243,
        "name": "FENGYUN 1C DEB",
        "group": "fengyun-1c-debris",
        "lat": 54.661004545247835,
        "lon": -143.85149986167045,
        "alt_km": 723.245900844594,
        "timestamp": "2025-12-26T22:28:06.070782+00:00",
        "meta_object_name": "FENGYUN 1C DEB",
        "meta_object_id": "1999-025CWR",
        "meta_epoch": "2025-12-24T13:29:19.216608",
        "meta_mean_motion": 14.04698676,
        "meta_eccentricity": 0.02689617,
        "meta_inclination": 98.2678,
        "meta_ra_of_asc_node": 22.149,
        "meta_arg_of_pericenter": 89.9627,
        "meta_mean_anomaly": 273.2359,
        "meta_ephemeris_type": 0,
        "meta_classification_type": "U",
        "meta_norad_cat_id": 32243,
        "meta_element_set_no": 999,
        "meta_rev_at_epoch": 93754,
        "meta_bstar": 0.0020051854,
        "meta_mean_motion_dot": 4.402e-05,
        "meta_mean_motion_ddot": 0,
        "tle_line1": "1 32243U 99025CWR 25358.56202797  .00004402  00000+0  20052-2 0  9990",
        "tle_line2": "2 32243  98.2678  22.1490 0268961  89.9627 273.2359 14.04698676937547"
      },
      "geometry": {
        "type": "Point",
        "coordinates": [
          -143.85149986167045,
          54.661004545247835
        ]
      }
    },
    {
      "type": "Feature",
      "properties": {
        "norad_id": 32245,
        "name": "FENGYUN 1C DEB",
        "group": "fengyun-1c-debris",
        "lat": 50.70015384330979,
        "lon": 28.73980877469484,
        "alt_km": 699.9257390659604,
        "timestamp": "2025-12-26T22:28:06.070793+00:00",
        "meta_object_name": "FENGYUN 1C DEB",
        "meta_object_id": "1999-025CWT",
        "meta_epoch": "2025-12-23T19:06:09.631584",
        "meta_mean_motion": 14.77154099,
        "meta_eccentricity": 0.00966875,
        "meta_inclination": 98.6537,
        "meta_ra_of_asc_node": 194.6492,
        "meta_arg_of_pericenter": 306.9863,
        "meta_mean_anomaly": 52.2524,
        "meta_ephemeris_type": 0,
        "meta_classification_type": "U",
        "meta_norad_cat_id": 32245,
        "meta_element_set_no": 999,
        "meta_rev_at_epoch": 66269,
        "meta_bstar": 0.0012005122,
        "meta_mean_motion_dot": 9.119e-05,
        "meta_mean_motion_ddot": 0,
        "tle_line1": "1 32245U 99025CWT 25357.79594481  .00009119  00000+0  12005-2 0  9999",
        "tle_line2": "2 32245  98.6537 194.6492 0096687 306.9863  52.2524 14.77154099662698"
      },
      "geometry": {
        "type": "Point",
        "coordinates": [
          28.73980877469484,
          50.70015384330979
        ]
      }
    },
    {
      "type": "Feature",
      "properties": {
        "norad_id": 32304,
        "name": "FENGYUN 1C DEB",
        "group": "fengyun-1c-debris",
        "lat": -39.52910966563023,
        "lon": 129.28757929377497,
        "alt_km": 701.4953193095134,
        "timestamp": "2025-12-26T22:28:06.070803+00:00",
        "meta_object_name": "FENGYUN 1C DEB",
        "meta_object_id": "1999-025CWV",
        "meta_epoch": "2025-12-24T03:14:40.087680",
        "meta_mean_motion": 14.50665703,
        "meta_eccentricity": 0.00495698,
        "meta_inclination": 99.3996,
        "meta_ra_of_asc_node": 314.0193,
        "meta_arg_of_pericenter": 191.8113,
        "meta_mean_anomaly": 168.1919,
        "meta_ephemeris_type": 0,
        "meta_classification_type": "U",
        "meta_norad_cat_id": 32304,
        "meta_element_set_no": 999,
        "meta_rev_at_epoch": 56438,
        "meta_bstar": 0.0011837985,
        "meta_mean_motion_dot": 4.67e-05,
        "meta_mean_motion_ddot": 0,
        "tle_line1": "1 32304U 99025CWV 25358.13518620  .00004670  00000+0  11838-2 0  9995",
        "tle_line2": "2 32304  99.3996 314.0193 0049569 191.8113 168.1919 14.50665703564385"
      },
      "geometry": {
        "type": "Point",
        "coordinates": [
          129.28757929377497,
          -39.52910966563023
        ]
      }
    },
    {
      "type": "Feature",
      "properties": {
        "norad_id": 32308,
        "name": "FENGYUN 1C DEB",
        "group": "fengyun-1c-debris",
        "lat": -22.56538741593855,
        "lon": 55.08106271115752,
        "alt_km": 821.4415040311314,
        "timestamp": "2025-12-26T22:28:06.070814+00:00",
        "meta_object_name": "FENGYUN 1C DEB",
        "meta_object_id": "1999-025CWZ",
        "meta_epoch": "2025-12-24T02:14:10.219776",
        "meta_mean_motion": 14.05552927,
        "meta_eccentricity": 0.01076508,
        "meta_inclination": 97.7728,
        "meta_ra_of_asc_node": 49.387,
        "meta_arg_of_pericenter": 27.4361,
        "meta_mean_anomaly": 333.2438,
        "meta_ephemeris_type": 0,
        "meta_classification_type": "U",
        "meta_norad_cat_id": 32308,
        "meta_element_set_no": 999,
        "meta_rev_at_epoch": 65571,
        "meta_bstar": 0.0016207472,
        "meta_mean_motion_dot": 2.742e-05,
        "meta_mean_motion_ddot": 0,
        "tle_line1": "1 32308U 99025CWZ 25358.09317384  .00002742  00000+0  16207-2 0  9991",
        "tle_line2": "2 32308  97.7728  49.3870 0107650  27.4361 333.2438 14.05552927655711"
      },
      "geometry": {
        "type": "Point",
        "coordinates": [
          55.08106271115752,
          -22.56538741593855
        ]
      }
    }
  ]
}